#aV2011  2 27  0  0   .00000000      96 DD+AD WGS84 FIT  NGA
## 1625       .00000000   900.00000000 55619  .0000000000000
+   32     1  2  3  4  5  6  7  8  9 10 11 12 13 14 15 16 17
+         18 19 20 21 22 23 24 25 26 27 28 29 30 31 32  0  0
+          0  0  0  0  0  0  0  0  0  0  0  0  0  0  0  0  0
+          0  0  0  0  0  0  0  0  0  0  0  0  0  0  0  0  0
+          0  0  0  0  0  0  0  0  0  0  0  0  0  0  0  0  0
++         0  0  0  0  0  0  0  0  0  0  0  0  0  0  0  0  0
++         0  0  0  0  0  0  0  0  0  0  0  0  0  0  0  0  0
++         0  0  0  0  0  0  0  0  0  0  0  0  0  0  0  0  0
++         0  0  0  0  0  0  0  0  0  0  0  0  0  0  0  0  0
++         0  0  0  0  0  0  0  0  0  0  0  0  0  0  0  0  0
%c cc cc ccc ccc cccc cccc cccc cccc ccccc ccccc ccccc ccccc
%c cc cc ccc ccc cccc cccc cccc cccc ccccc ccccc ccccc ccccc
%f  0.0000000  0.000000000  0.00000000000  0.000000000000000
%f  0.0000000  0.000000000  0.00000000000  0.000000000000000
%i    0    0    0    0      0      0      0      0         0
%i    0    0    0    0      0      0      0      0         0
/*      NGA, ST. LOUIS,MO.                                  
/*   EPHEMERIS COMPUTED FROM  3 DAYS OF DATA                
/* CCCCCCCCCCCCCCCCCCCCCCCCCCCCCCCCCCCCCCCCCCCCCCCCCCCCCCCCC
/* CCCCCCCCCCCCCCCCCCCCCCCCCCCCCCCCCCCCCCCCCCCCCCCCCCCCCCCCC
*  2011  2 27 20  0   .00000000                                                 
P  1 -11903.791843 -10727.065164 -21314.763426   -211.689710                    
V  1  24158.708603 -11522.438142  -7598.084079      -.029106                    
P  2  13688.501047  11189.070852 -19929.026713    322.620371                    
V  2  -3172.785527  25125.475176  11432.057526       .019923                    
P  3 -24452.189805  -9820.166295   4092.315329    681.737679                    
V  3  -3291.276867  -5812.717099 -30247.212874       .050255                    
P  4   8009.420375  21183.885238 -13793.066210     47.235754                    
V  4  -4626.669424  16989.896611  24112.413273       .102947                    
P  5  22374.644375   1032.475918 -14374.505777   -121.408055                    
V  5 -15668.991112   9496.914917 -23636.142469      -.059095                    
P  6 -22987.970719 -13462.023588   1497.406118    135.340464                    
V  6    410.169662  -3793.185228 -30984.175197     -1.395135                    
P  7  -5851.093555  25390.044582  -4557.627471      4.510469                    
V  7  -1879.990263  -6054.465705 -31475.994055       .008190                    
P  8   -213.922886  25398.992551   6728.112693      7.462849                    
V  8  -3581.231918   8105.700901 -31329.674884      -.000196                    
P  9  13554.452751 -12035.131037  18866.146499     64.507421                    
V  9   -758.820946  25084.755094  16098.954484       .024684                    
P 10  10243.765520  12317.330779 -21438.591428    -67.442003                    
V 10 -24463.459251  10758.934938  -5193.038772      -.010732                    
P 11 -13737.000051  11981.857630  18903.622595   -130.557008                    
V 11  -5850.014512 -24495.023888  11443.975567      -.029521                    
P 12  24166.676003 -10787.277678   -441.825840    -23.262516                    
V 12   1564.475349   2100.359424  32146.018292       .032272                    
P 13  -4648.588283  14727.866279 -21741.874190    280.895346                    
V 13 -21031.691340 -17249.383445  -7280.000678      -.013984                    
P 14 -12290.871500 -20322.782806  12181.505707    134.280197                    
V 14  12789.536258   8253.400237  26891.508003       .025192                    
P 15  19890.681240  -1517.509767  17623.361159   -147.649050                    
V 15  17372.536509  14129.232267 -18241.996708       .033422                    
P 16 -20733.819179  -3470.801905 -16377.958558   -153.941624                    
V 16  18608.921221  -9192.704793 -21279.331786      -.028981                    
P 17  11596.658711  20269.166705  12993.413204    183.501987                    
V 17 -14128.589739  -8198.035281  25429.448193       .003010                    
P 18   7569.817573 -17925.049847  18218.982506    123.827565                    
V 18  21730.056032  -7070.061830 -16627.023807       .020291                    
P 19 -21359.667566  -3906.266768  15523.735834   -115.340663                    
V 19 -13720.516240 -14081.849798 -22092.765345      -.036972                    
P 20 -21667.783540  14605.593632  -4703.838504     48.661294                    
V 20  -6828.782816   -663.792960  30419.427200       .000174                    
P 21   5167.385458 -25467.846317  -3149.327645   -126.954484                    
V 21   3734.645372   4994.278255 -31153.170829      -.026797                    
P 22  -4532.544537 -15338.168116  21365.835836    152.581867                    
V 22  24849.803535 -10221.107963  -2179.789703      -.005854                    
P 23 -15648.418339   6199.069805 -20626.627763    323.284370                    
V 23 -20574.676115 -16057.688324  10454.900632      -.024134                    
P 24 -14648.673457  13814.313521  17241.587426    369.121737                    
V 24   1300.481179 -21981.342228  19046.575867       .033052                    
P 25  15337.863285 -17260.218831 -13129.185551    -69.654703                    
V 25  16021.502652  -5048.608030  25387.293161      -.011571                    
P 26  22397.053293  11806.281953   8118.299356   -132.265171                    
V 26   7381.725852   8282.142045 -29837.828757      -.098717                    
P 27  15005.084580  -4907.947958  21985.444374    240.852877                    
V 27   -869.425631  26323.424767   6963.210789       .035402                    
P 28    314.555860  15857.754114  21780.700267     22.405101                    
V 28 -24747.622079   9366.395191  -6881.355359       .021254                    
P 29   7465.660625 -13322.340724 -21649.914411    188.695862                    
V 29  21998.341326  16804.976657  -2707.033198       .028637                    
P 30 -15209.364269  -8432.910505 -20491.327880    325.267535                    
V 30  22006.085403 -12135.764119 -11539.945944       .030274                    
P 31  -8274.419912 -19712.596592 -15412.261942     46.897447                    
V 31   3935.676593 -19688.395984  22960.188845       .048043                    
P 32 -25355.199302   6572.153647   3066.522745   -205.066064                    
V 32   2304.089816  -4285.554339  31581.930320      -.077271                    
EOF
